{
  "norad_id": 55499,
  "name": "STARLINK-5366",
  "history": [
    {
      "epoch": "2026-03-28T17:55:40.967616Z",
      "apogee_km": 485.91069005643294,
      "perigee_km": 483.87113542132465,
      "latitude_deg": 2.733881755567369e-05,
      "longitude_deg": 136.68311617764283,
      "height_km": 484.7435320739556,
      "semi_major_axis_km": 6863.0279127388785,
      "eccentricity": 0.00014859,
      "inclination_deg": 43.0014,
      "raan_deg": 231.7668,
      "arg_perigee_deg": 265.7459,
      "mean_anomaly_deg": 94.3223,
      "mean_motion_rev_day": 15.26965111
    },
    {
      "epoch": "2026-03-29T01:46:27.260832Z",
      "apogee_km": 486.6827341397402,
      "perigee_km": 482.190493452149,
      "latitude_deg": 1.376664261985198e-05,
      "longitude_deg": 16.823781563380642,
      "height_km": 484.6845365384619,
      "semi_major_axis_km": 6862.573613795945,
      "eccentricity": 0.0003273,
      "inclination_deg": 43.0043,
      "raan_deg": 229.9226,
      "arg_perigee_deg": 257.9348,
      "mean_anomaly_deg": 102.1137,
      "mean_motion_rev_day": 15.2711674
    },
    {
      "epoch": "2026-03-29T01:46:27.261696Z",
      "apogee_km": 486.68287139121276,
      "perigee_km": 482.19035620067734,
      "latitude_deg": 1.529263987942192e-05,
      "longitude_deg": 16.823779580689774,
      "height_km": 484.6845652243621,
      "semi_major_axis_km": 6862.573613795945,
      "eccentricity": 0.00032732,
      "inclination_deg": 43.0043,
      "raan_deg": 229.9226,
      "arg_perigee_deg": 257.9348,
      "mean_anomaly_deg": 102.1137,
      "mean_motion_rev_day": 15.2711674
    },
    {
      "epoch": "2026-03-30T15:26:27.170592Z",
      "apogee_km": 483.8682931494777,
      "perigee_km": 483.05039086551005,
      "latitude_deg": -1.9951740910445686e-05,
      "longitude_deg": 161.41460881620227,
      "height_km": 482.9641633323671,
      "semi_major_axis_km": 6861.596342007494,
      "eccentricity": 5.96e-05,
      "inclination_deg": 42.9981,
      "raan_deg": 221.06,
      "arg_perigee_deg": 311.4798,
      "mean_anomaly_deg": 48.6002,
      "mean_motion_rev_day": 15.27443004
    },
    {
      "epoch": "2026-03-30T17:00:43.330176Z",
      "apogee_km": 484.31539810096365,
      "perigee_km": 483.1152601286003,
      "latitude_deg": -3.009869911657921e-05,
      "longitude_deg": 137.4149414107942,
      "height_km": 483.0397143756331,
      "semi_major_axis_km": 6861.852329114781,
      "eccentricity": 8.745e-05,
      "inclination_deg": 42.9998,
      "raan_deg": 220.6922,
      "arg_perigee_deg": 318.8223,
      "mean_anomaly_deg": 41.2562,
      "mean_motion_rev_day": 15.27357531
    },
    {
      "epoch": "2026-03-31T20:00:01.999008Z",
      "apogee_km": 484.26408501179867,
      "perigee_km": 482.11374546996194,
      "latitude_deg": 40.49949904140142,
      "longitude_deg": 150.74293397007443,
      "height_km": 486.69704393893664,
      "semi_major_axis_km": 6861.32591524088,
      "eccentricity": 0.0001567,
      "inclination_deg": 43.0008,
      "raan_deg": 214.3417,
      "arg_perigee_deg": 281.2931,
      "mean_anomaly_deg": 150.3756,
      "mean_motion_rev_day": 15.27533307
    }
  ]
}